NAVSTAR 77 (USA 289)    
1 43873U 18109A   24119.21340535  .00000068  00000+0  00000+0 0  9996
2 43873  55.2778 123.0019 0028739 195.9118 151.3835  2.00553684 39371
